ONEWEB-0176             
1 48210U 21031A   25161.80031479 -.00000001  00000+0 -36682-4 0  9990
2 48210  87.9038   3.5877 0001787  88.5739 271.5596 13.14502315199521
ONEWEB-0184             
1 48211U 21031B   25162.53454055  .00000119  00000+0  28659-3 0  9993
2 48211  87.9033   3.4128 0002394 106.2548 253.8845 13.14502715199597
ONEWEB-0179             
1 48212U 21031C   25161.59178215 -.00000166  00000+0 -48326-3 0  9997
2 48212  87.9036   3.6165 0001898  85.2250 274.9096 13.14502002199511
ONEWEB-0180             
1 48213U 21031D   25162.00486917  .00000265  00000+0  67964-3 0  9993
2 48213  87.9033   3.5225 0002053  90.7857 269.3508 13.14505466199459
ONEWEB-0218             
1 48214U 21031E   25161.64648327  .00000034  00000+0  55887-4 0  9994
2 48214  87.9034   3.5944 0002616 102.6917 257.4505 13.14504729199562
ONEWEB-0209             
1 48215U 21031F   25162.01598369  .00000248  00000+0  63485-3 0  9996
2 48215  87.9038   3.5640 0001940  83.7821 276.3529 13.14502742199617
ONEWEB-0198             
1 48216U 21031G   25162.00011068  .00000183  00000+0  45914-3 0  9997
2 48216  87.9035   3.5689 0002186  91.0581 269.0800 13.14504992199706
ONEWEB-0189             
1 48217U 21031H   25161.86057191  .00000209  00000+0  53032-3 0  9997
2 48217  87.9037   3.5705 0002225  90.7350 269.4034 13.14501331199440
